IRIDIUM 36              
1 24967U 97056C   24307.41693922  .00002324  00000+0  77512-3 0  9992
2 24967  86.3929 268.2147 0002506  83.5356 276.6127 14.37179332419645
IRIDIUM 39              
1 25042U 97069D   24307.54133990  .00003287  00000+0  86866-3 0  9990
2 25042  86.3867 308.3197 0017535 351.1866   8.9027 14.48547818416147
IRIDIUM 38              
1 25043U 97069E   24307.58811213  .00001905  00000+0  62796-3 0  9997
2 25043  86.3944 328.5198 0003966 105.1084 255.0553 14.37664497413395
IRIDIUM 42              
1 25077U 97077A   24307.59716531  .00001802  00000+0  61472-3 0  9997
2 25077  86.3960 334.4055 0002720 102.2237 257.9264 14.35935429408672
IRIDIUM 44              
1 25078U 97077B   24307.53574817  .00002261  00000+0  71532-3 0  9999
2 25078  86.3923 316.9570 0003905  73.9604 286.2024 14.39788340411087
IRIDIUM 45              
1 25104U 97082A   24307.56942091  .00036201  00000+0  16918-2 0  9998
2 25104  86.3654 156.9350 0144969  93.3680 268.4153 15.10680866417694
IRIDIUM 24              
1 25105U 97082B   24307.58972504  .00002043  00000+0  62137-3 0  9995
2 25105  86.3956 176.3266 0013403 103.3415 256.9280 14.41624592410567
IRIDIUM 51              
1 25262U 98018A   24307.58503485  .00053572  00000+0  19579-2 0  9991
2 25262  86.3937 166.3064 0125726  30.4026 330.4429 15.20653267412378
